NORAD_CAT_ID,OBJECT_NAME,OBJECT_TYPE,EPOCH,MEAN_MOTION,ECCENTRICITY,INCLINATION,RA_OF_ASC_NODE,ARG_OF_PERICENTER,MEAN_ANOMALY,BSTAR,MEAN_MOTION_DOT,MEAN_MOTION_DDOT,TLE_LINE0,TLE_LINE1,TLE_LINE2,SEMIMAJOR_AXIS,PERIOD,APOGEE,PERIGEE,DECAYED
55960.0,STARLINK-5938,PAYLOAD,2023-11-04 07:11:02,14.96718433,0.0002987,69.9995,263.329,269.7439,90.3377,2.7457e-05,2.23e-06,0.0,0 STARLINK-5938,1 55960U 23037AY  23308.29933308  .00000223  00000-0  27457-4 0  9999,2 55960  69.9995 263.3290 0002987 269.7439  90.3377 14.96718433 36201,6955.181,96.21,579.124,574.968,0.0
55960.0,STARLINK-5938,PAYLOAD,2023-11-04 21:37:11,14.96713531,0.0003043,69.9994,261.8156,272.0808,88.0002,3.1802e-05,2.72e-06,0.0,0 STARLINK-5938,1 55960U 23037AY  23308.90082316  .00000272  00000-0  31802-4 0  9994,2 55960  69.9994 261.8156 0003043 272.0808  88.0002 14.96713531 36297,6955.196,96.211,579.178,574.945,0.0
55960.0,STARLINK-5938,PAYLOAD,2023-11-05 04:02:07,14.96732726,0.000284,69.9994,261.1438,261.449,98.6347,6.1182e-05,6.09e-06,0.0,0 STARLINK-5938,1 55960U 23037AY  23309.16813798  .00000609  00000-0  61182-4 0  9997,2 55960  69.9994 261.1438 0002840 261.4490  98.6347 14.96732726 36674,6955.137,96.21,578.977,575.026,0.0
55960.0,STARLINK-5938,PAYLOAD,2023-11-05 13:39:32,14.96759224,0.0002143,70.0016,260.1346,284.0738,76.0182,-0.000716,-8.286e-05,0.0,0 STARLINK-5938,1 55960U 23037AY  23309.56912974 -.00008286  00000-0 -71600-3 0  9993,2 55960  70.0016 260.1346 0002143 284.0738  76.0182 14.96759224 36399,6955.055,96.208,578.41,575.429,0.0
55960.0,STARLINK-5938,PAYLOAD,2023-11-05 21:40:44,14.96719299,0.000293,69.9997,259.2947,273.5266,86.5557,5.7927e-05,5.72e-06,0.0,0 STARLINK-5938,1 55960U 23037AY  23309.90329444  .00000572  00000-0  57927-4 0  9990,2 55960  69.9997 259.2947 0002930 273.5266  86.5557 14.96719299 36449,6955.178,96.21,579.081,575.005,0.0
55960.0,STARLINK-5938,PAYLOAD,2023-11-06 00:53:12,14.96724349,0.0002802,69.9997,258.9581,278.1625,81.9216,8.2679e-05,8.55e-06,0.0,0 STARLINK-5938,1 55960U 23037AY  23310.03695450  .00000855  00000-0  82679-4 0  9995,2 55960  69.9997 258.9581 0002802 278.1625  81.9216 14.96724349 36800,6955.163,96.21,578.977,575.079,0.0
55960.0,STARLINK-5938,PAYLOAD,2023-11-06 05:41:54,14.96738288,0.0002722,69.9998,258.4559,262.5443,97.5406,0.0002309,2.554e-05,0.0,0 STARLINK-5938,1 55960U 23037AY  23310.23743478  .00002554  00000-0  23090-3 0  9990,2 55960  69.9998 258.4559 0002722 262.5443  97.5406 14.96738288 36831,6955.119,96.209,578.878,575.091,0.0
55960.0,STARLINK-5938,PAYLOAD,2023-11-06 13:43:07,14.96721878,0.0002602,70.0001,257.6138,268.6509,91.4351,-0.00011024,-1.353e-05,0.0,0 STARLINK-5938,1 55960U 23037AY  23310.57161124 -.00001353  00000-0 -11024-3 0  9991,2 55960  70.0001 257.6138 0002602 268.6509  91.4351 14.96721878 36547,6955.17,96.21,578.845,575.226,0.0
55960.0,STARLINK-5938,PAYLOAD,2023-11-06 21:44:21,14.96684968,0.000269,69.9995,256.7745,259.2106,100.8749,-0.00051185,-5.94e-05,0.0,0 STARLINK-5938,1 55960U 23037AY  23310.90580783 -.00005940  00000-0 -51185-3 0  9992,2 55960  69.9995 256.7745 0002690 259.2106 100.8749 14.96684968 36595,6955.285,96.213,579.021,575.279,0.0
55960.0,STARLINK-5938,PAYLOAD,2023-11-07 04:09:19,14.96683243,0.0002623,69.9996,256.1023,254.808,105.2788,-0.00045192,-5.256e-05,0.0,0 STARLINK-5938,1 55960U 23037AY  23311.17313981 -.00005256  00000-0 -45192-3 0  9997,2 55960  69.9996 256.1023 0002623 254.8080 105.2788 14.96683243 36976,6955.29,96.213,578.979,575.331,0.0
55960.0,STARLINK-5938,PAYLOAD,2023-11-07 13:46:44,14.96699108,0.0003104,69.9993,255.0918,263.2347,96.8458,-0.00030753,-3.608e-05,0.0,0 STARLINK-5938,1 55960U 23037AY  23311.57412231 -.00003608  00000-0 -30753-3 0  9995,2 55960  69.9993 255.0918 0003104 263.2347  96.8458 14.96699108 36694,6955.241,96.212,579.265,574.947,0.0
55960.0,STARLINK-5938,PAYLOAD,2023-11-08 02:36:38,14.96708591,0.0002914,69.9991,253.7479,259.4691,100.6139,-0.00012967,-1.575e-05,0.0,0 STARLINK-5938,1 55960U 23037AY  23312.10877346 -.00001575  00000-0 -12967-3 0  9995,2 55960  69.9991 253.7479 0002914 259.4691 100.6139 14.96708591 37111,6955.211,96.211,579.103,575.05,0.0
55960.0,STARLINK-5938,PAYLOAD,2023-11-08 05:49:06,14.96719441,0.0002703,69.9996,253.413,258.0701,102.0154,-0.00011332,-1.388e-05,0.0,0 STARLINK-5938,1 55960U 23037AY  23312.24243099 -.00001388  00000-0 -11332-3 0  9999,2 55960  69.9996 253.4130 0002703 258.0701 102.0154 14.96719441 37131,6955.178,96.21,578.923,575.163,0.0
55960.0,STARLINK-5938,PAYLOAD,2023-11-08 21:51:28,14.96698814,0.00029,69.9997,251.7323,256.2089,103.8746,0.00049608,5.588e-05,0.0,0 STARLINK-5938,1 55960U 23037AY  23312.91074862  .00005588  00000-0  49608-3 0  9994,2 55960  69.9997 251.7323 0002900 256.2089 103.8746 14.96698814 36893,6955.242,96.212,579.124,575.09,0.0
55960.0,STARLINK-5938,PAYLOAD,2023-11-09 05:52:39,14.96707442,0.0002826,70.0001,250.8912,262.6227,97.461,0.00066275,7.501e-05,0.0,0 STARLINK-5938,1 55960U 23037AY  23313.24490108  .00007501  00000-0  66275-3 0  9992,2 55960  70.0001 250.8912 0002826 262.6227  97.4610 14.96707442 37288,6955.215,96.211,579.046,575.115,0.0
55960.0,STARLINK-5938,PAYLOAD,2023-11-09 21:55:02,14.96717531,0.0002825,69.9999,249.2125,256.6109,103.4734,0.00011051,1.174e-05,0.0,0 STARLINK-5938,1 55960U 23037AY  23313.91322887  .00001174  00000-0  11051-3 0  9996,2 55960  69.9999 249.2125 0002825 256.6109 103.4734 14.96717531 37049,6955.184,96.211,579.014,575.084,0.0
55960.0,STARLINK-5938,PAYLOAD,2023-11-10 04:20:00,14.96718554,0.0002727,69.9999,248.5394,257.5153,102.57,8.4322e-05,8.74e-06,0.0,0 STARLINK-5938,1 55960U 23037AY  23314.18055615  .00000874  00000-0  84322-4 0  9996,2 55960  69.9999 248.5394 0002727 257.5153 102.5700 14.96718554 37420,6955.181,96.21,578.942,575.149,0.0
55960.0,STARLINK-5938,PAYLOAD,2023-11-10 05:56:14,14.96719383,0.0002697,70.0001,248.3713,257.1354,102.9503,0.00010344,1.093e-05,0.0,0 STARLINK-5938,1 55960U 23037AY  23314.24738689  .00001093  00000-0  10344-3 0  9998,2 55960  70.0001 248.3713 0002697 257.1354 102.9503 14.96719383 37094,6955.178,96.21,578.919,575.167,0.0
55960.0,STARLINK-5938,PAYLOAD,2023-11-10 20:22:22,14.9672799,0.0002454,70.0004,246.859,246.0838,114.0063,-0.00014035,-1.698e-05,0.0,0 STARLINK-5938,1 55960U 23037AY  23314.84887267 -.00001698  00000-0 -14035-3 0  9995,2 55960  70.0004 246.8590 0002454 246.0838 114.0063 14.96727990 37186,6955.151,96.21,578.723,575.31,0.0
55960.0,STARLINK-5938,PAYLOAD,2023-11-11 05:59:48,14.96726046,0.0002422,70.0006,245.8492,250.0032,110.0865,-0.00011587,-1.418e-05,0.0,0 STARLINK-5938,1 55960U 23037AY  23315.24986249 -.00001418  00000-0 -11587-3 0  9999,2 55960  70.0006 245.8492 0002422 250.0032 110.0865 14.96726046 37585,6955.157,96.21,578.707,575.338,0.0
55960.0,STARLINK-5938,PAYLOAD,2023-11-11 12:24:44,14.967476,0.0002267,70.0013,245.1756,265.4086,94.6813,-0.00060296,-6.991e-05,0.0,0 STARLINK-5938,1 55960U 23037AY  23315.51718563 -.00006991  00000-0 -60296-3 0  9993,2 55960  70.0013 245.1756 0002267 265.4086  94.6813 14.96747600 37281,6955.091,96.209,578.532,575.379,0.0
55960.0,STARLINK-5938,PAYLOAD,2023-11-11 20:25:56,14.96712108,0.0002426,70.0013,244.3353,266.0161,94.072,3.744e-05,3.37e-06,0.0,0 STARLINK-5938,1 55960U 23037AY  23315.85135213  .00000337  00000-0  37440-4 0  9997,2 55960  70.0013 244.3353 0002426 266.0161  94.0720 14.96712108 37672,6955.201,96.211,578.753,575.378,0.0
55960.0,STARLINK-5938,PAYLOAD,2023-11-11 22:02:11,14.96713324,0.000245,69.9999,244.1681,258.5186,101.5698,-2.6261e-05,-3.92e-06,0.0,0 STARLINK-5938,1 55960U 23037AY  23315.91818521 -.00000392  00000-0 -26261-4 0  9996,2 55960  69.9999 244.1681 0002450 258.5186 101.5698 14.96713324 37347,6955.197,96.211,578.766,575.358,0.0
55960.0,STARLINK-5938,PAYLOAD,2023-11-12 12:28:19,14.96737394,0.0002071,70.0012,242.6552,270.0144,90.0777,-0.00045603,-5.31e-05,0.0,0 STARLINK-5938,1 55960U 23037AY  23316.51966843 -.00005310  00000-0 -45603-3 0  9999,2 55960  70.0012 242.6552 0002071 270.0144  90.0777 14.96737394 37431,6955.122,96.209,578.428,575.547,0.0
55960.0,STARLINK-5938,PAYLOAD,2023-11-12 22:05:45,14.96714329,0.0002525,70.0001,241.6473,264.7782,95.3088,-1.6873e-05,-2.85e-06,0.0,0 STARLINK-5938,1 55960U 23037AY  23316.92066380 -.00000285  00000-0 -16873-4 0  9995,2 55960  70.0001 241.6473 0002525 264.7782  95.3088 14.96714329 37494,6955.194,96.211,578.815,575.303,0.0
55960.0,STARLINK-5938,PAYLOAD,2023-11-13 02:54:28,14.96715948,0.0002224,70.0008,241.1443,249.2307,110.8613,9.2504e-06,1.4e-07,0.0,0 STARLINK-5938,1 55960U 23037AY  23317.12115789  .00000014  00000-0  92504-5 0  9990,2 55960  70.0008 241.1443 0002224 249.2307 110.8613 14.96715948 37866,6955.189,96.211,578.601,575.507,0.0
55960.0,STARLINK-5938,PAYLOAD,2023-11-13 04:30:42,14.96719536,0.0002157,70.0008,240.9751,271.0663,89.0248,5.9768e-05,5.93e-06,0.0,0 STARLINK-5938,1 55960U 23037AY  23317.18798737  .00000593  00000-0  59768-4 0  9992,2 55960  70.0008 240.9751 0002157 271.0663  89.0248 14.96719536 37530,6955.178,96.21,578.543,575.542,0.0
55960.0,STARLINK-5938,PAYLOAD,2023-11-13 12:31:53,14.96714896,0.0002228,70.0014,240.134,274.2205,85.8699,-1.2345e-05,-2.33e-06,0.0,0 STARLINK-5938,1 55960U 23037AY  23317.52215170 -.00000233  00000-0 -12345-4 0  9998,2 55960  70.0014 240.1340 0002228 274.2205  85.8699 14.96714896 37582,6955.192,96.211,578.607,575.507,0.0
55960.0,STARLINK-5938,PAYLOAD,2023-11-14 02:58:02,14.96710238,0.0002295,70.0005,238.6203,254.4543,105.6362,5.2662e-05,5.11e-06,0.0,0 STARLINK-5938,1 55960U 23037AY  23318.12363944  .00000511  00000-0  52662-4 0  9991,2 55960  70.0005 238.6203 0002295 254.4543 105.6362 14.96710238 38014,6955.206,96.211,578.668,575.475,0.0
55960.0,STARLINK-5938,PAYLOAD,2023-11-14 12:35:28,14.96715391,0.0002508,70.0008,237.6118,281.0594,79.0282,-1.1853e-05,-2.27e-06,0.0,0 STARLINK-5938,1 55960U 23037AY  23318.52463112 -.00000227  00000-0 -11853-4 0  9996,2 55960  70.0008 237.6118 0002508 281.0594  79.0282 14.96715391 37738,6955.19,96.211,578.8,575.311,0.0
